{
  "links" : {
    "next" : "https://api.nasa.gov/neo/rest/v1/feed?start_date=2003-12-16&end_date=2003-12-16&detailed=true&api_key=t0TVs3DtDT2H8Oy2Zy8m2eVrNsAVKAexjcZXUckd",
    "prev" : "https://api.nasa.gov/neo/rest/v1/feed?start_date=2003-12-14&end_date=2003-12-14&detailed=true&api_key=t0TVs3DtDT2H8Oy2Zy8m2eVrNsAVKAexjcZXUckd",
    "self" : "https://api.nasa.gov/neo/rest/v1/feed?start_date=2003-12-15&end_date=2003-12-15&detailed=true&api_key=t0TVs3DtDT2H8Oy2Zy8m2eVrNsAVKAexjcZXUckd"
  },
  "element_count" : 7,
  "near_earth_objects" : {
    "2003-12-15" : [ {
      "links" : {
        "self" : "https://api.nasa.gov/neo/rest/v1/neo/2141498?api_key=t0TVs3DtDT2H8Oy2Zy8m2eVrNsAVKAexjcZXUckd"
      },
      "neo_reference_id" : "2141498",
      "name" : "141498 (2002 EZ16)",
      "nasa_jpl_url" : "http://ssd.jpl.nasa.gov/sbdb.cgi?sstr=2141498",
      "absolute_magnitude_h" : 18.3,
      "estimated_diameter" : {
        "kilometers" : {
          "estimated_diameter_min" : 0.5815070396,
          "estimated_diameter_max" : 1.30028927
        },
        "meters" : {
          "estimated_diameter_min" : 581.5070396458,
          "estimated_diameter_max" : 1300.2892700427
        },
        "miles" : {
          "estimated_diameter_min" : 0.3613316107,
          "estimated_diameter_max" : 0.807962044
        },
        "feet" : {
          "estimated_diameter_min" : 1907.8315559515,
          "estimated_diameter_max" : 4266.0410487267
        }
      },
      "is_potentially_hazardous_asteroid" : false,
      "close_approach_data" : [ {
        "close_approach_date" : "2003-12-15",
        "epoch_date_close_approach" : 1071475200000,
        "relative_velocity" : {
          "kilometers_per_second" : "17.7306660847",
          "kilometers_per_hour" : "63830.3979050435",
          "miles_per_hour" : "39661.7269649422"
        },
        "miss_distance" : {
          "astronomical" : "0.4099552151",
          "lunar" : "159.4725799561",
          "kilometers" : "61328428",
          "miles" : "38107716"
        },
        "orbiting_body" : "Earth"
      } ],
      "orbital_data" : {
        "orbit_id" : "55",
        "orbit_determination_date" : "2017-04-06 09:27:33",
        "orbit_uncertainty" : "0",
        "minimum_orbit_intersection" : ".176965",
        "jupiter_tisserand_invariant" : "6.246",
        "epoch_osculation" : "2458000.5",
        "eccentricity" : ".566466548411884",
        "semi_major_axis" : ".921596388373581",
        "inclination" : "30.1398316957397",
        "ascending_node_longitude" : "262.9101217309696",
        "orbital_period" : "323.1540275925956",
        "perihelion_distance" : ".3995428632227404",
        "perihelion_argument" : "25.3442971340517",
        "aphelion_distance" : "1.443649913524422",
        "perihelion_time" : "2458042.557574398576",
        "mean_anomaly" : "313.1470274522607",
        "mean_motion" : "1.114019845836044",
        "equinox" : "J2000"
      }
    }, {
      "links" : {
        "self" : "https://api.nasa.gov/neo/rest/v1/neo/2163899?api_key=t0TVs3DtDT2H8Oy2Zy8m2eVrNsAVKAexjcZXUckd"
      },
      "neo_reference_id" : "2163899",
      "name" : "163899 (2003 SD220)",
      "nasa_jpl_url" : "http://ssd.jpl.nasa.gov/sbdb.cgi?sstr=2163899",
      "absolute_magnitude_h" : 17.3,
      "estimated_diameter" : {
        "kilometers" : {
          "estimated_diameter_min" : 0.9216265485,
          "estimated_diameter_max" : 2.0608196123
        },
        "meters" : {
          "estimated_diameter_min" : 921.6265485028,
          "estimated_diameter_max" : 2060.8196123208
        },
        "miles" : {
          "estimated_diameter_min" : 0.5726720101,
          "estimated_diameter_max" : 1.2805335433
        },
        "feet" : {
          "estimated_diameter_min" : 3023.70924539,
          "estimated_diameter_max" : 6761.2194168867
        }
      },
      "is_potentially_hazardous_asteroid" : true,
      "close_approach_data" : [ {
        "close_approach_date" : "2003-12-15",
        "epoch_date_close_approach" : 1071475200000,
        "relative_velocity" : {
          "kilometers_per_second" : "18.8655031785",
          "kilometers_per_hour" : "67915.8114427166",
          "miles_per_hour" : "42200.2440600591"
        },
        "miss_distance" : {
          "astronomical" : "0.4322095021",
          "lunar" : "168.129486084",
          "kilometers" : "64657620",
          "miles" : "40176384"
        },
        "orbiting_body" : "Earth"
      } ],
      "orbital_data" : {
        "orbit_id" : "80",
        "orbit_determination_date" : "2017-04-06 09:26:10",
        "orbit_uncertainty" : "0",
        "minimum_orbit_intersection" : ".017361",
        "jupiter_tisserand_invariant" : "7.059",
        "epoch_osculation" : "2458000.5",
        "eccentricity" : ".2106216557862201",
        "semi_major_axis" : ".8275538544946267",
        "inclination" : "8.459065788070809",
        "ascending_node_longitude" : "274.0503733557691",
        "orbital_period" : "274.9747561701427",
        "perihelion_distance" : ".6532530914086998",
        "perihelion_argument" : "326.4735420651124",
        "aphelion_distance" : "1.001854617580554",
        "perihelion_time" : "2458029.014392952635",
        "mean_anomaly" : "322.6686405475093",
        "mean_motion" : "1.309211089098111",
        "equinox" : "J2000"
      }
    }, {
      "links" : {
        "self" : "https://api.nasa.gov/neo/rest/v1/neo/3170203?api_key=t0TVs3DtDT2H8Oy2Zy8m2eVrNsAVKAexjcZXUckd"
      },
      "neo_reference_id" : "3170203",
      "name" : "(2003 YX1)",
      "nasa_jpl_url" : "http://ssd.jpl.nasa.gov/sbdb.cgi?sstr=3170203",
      "absolute_magnitude_h" : 20.9,
      "estimated_diameter" : {
        "kilometers" : {
          "estimated_diameter_min" : 0.1756123185,
          "estimated_diameter_max" : 0.3926810818
        },
        "meters" : {
          "estimated_diameter_min" : 175.6123184804,
          "estimated_diameter_max" : 392.6810818086
        },
        "miles" : {
          "estimated_diameter_min" : 0.1091204019,
          "estimated_diameter_max" : 0.2440006365
        },
        "feet" : {
          "estimated_diameter_min" : 576.1559189633,
          "estimated_diameter_max" : 1288.3238004408
        }
      },
      "is_potentially_hazardous_asteroid" : true,
      "close_approach_data" : [ {
        "close_approach_date" : "2003-12-15",
        "epoch_date_close_approach" : 1071475200000,
        "relative_velocity" : {
          "kilometers_per_second" : "8.5944956542",
          "kilometers_per_hour" : "30940.1843550062",
          "miles_per_hour" : "19225.0273288093"
        },
        "miss_distance" : {
          "astronomical" : "0.0238981003",
          "lunar" : "9.2963609695",
          "kilometers" : "3575105",
          "miles" : "2221467.25"
        },
        "orbiting_body" : "Earth"
      } ],
      "orbital_data" : {
        "orbit_id" : "45",
        "orbit_determination_date" : "2017-04-06 09:13:24",
        "orbit_uncertainty" : "1",
        "minimum_orbit_intersection" : ".012061",
        "jupiter_tisserand_invariant" : "6.704",
        "epoch_osculation" : "2458000.5",
        "eccentricity" : ".2670427994946132",
        "semi_major_axis" : ".8796030757776683",
        "inclination" : "5.757141312886544",
        "ascending_node_longitude" : "89.66559088077426",
        "orbital_period" : "301.3204003968991",
        "perihelion_distance" : ".6447114079779274",
        "perihelion_argument" : "223.1398175425639",
        "aphelion_distance" : "1.114494743577409",
        "perihelion_time" : "2458024.065115622245",
        "mean_anomaly" : "331.8457774089185",
        "mean_motion" : "1.194741542643008",
        "equinox" : "J2000"
      }
    } ]
  }
}